STARLINK-4160           
1 53030U 22076AW  25083.32819572 -.00000627  00000+0 -21325-4 0  9996
2 53030  53.2163 217.1463 0001528  96.1277 263.9889 15.08832045150091
STARLINK-4137           
1 53031U 22076AX  25083.74124376  .00003454  00000+0  23495-3 0  9992
2 53031  53.2163 205.0973 0001356  96.4543 263.6604 15.08847323150291
STARLINK-4115           
1 53032U 22076AY  25083.63728915  .00000980  00000+0  79658-4 0  9994
2 53032  53.2154 215.5644 0001170 101.6594 258.4530 15.08839330150617
STARLINK-4167           
1 53033U 22076AZ  25083.61244982 -.00000194  00000+0  59266-5 0  9992
2 53033  53.2160 205.6779 0001436  96.1596 263.9559 15.08838525150278
STARLINK-4151           
1 53034U 22076BA  25084.01820944  .00002983  00000+0  20542-3 0  9996
2 53034  53.2165 203.9034 0001571  89.1035 271.0137 15.08846309150797
STARLINK-4157           
1 53035U 22076BB  25083.60508965  .00003083  00000+0  21167-3 0  9993
2 53035  53.2178 205.7084 0001542  95.8741 264.2427 15.08842975150738
STARLINK-4155           
1 53036U 22076BC  25083.60140708  .00000702  00000+0  62202-4 0  9992
2 53036  53.2168 205.7265 0001409  91.7243 268.3911 15.08842538150731
STARLINK-4153           
1 53037U 22076BD  25083.59773160  .00003327  00000+0  22703-3 0  9992
2 53037  53.2153 205.7441 0001671  92.2653 267.8530 15.08845003150274
STARLINK-4156           
1 53038U 22076BE  25083.59405065  .00002078  00000+0  14862-3 0  9998
2 53038  53.2147 205.7583 0001266  93.7241 266.3896 15.08837715150274
STARLINK-4362           
1 53043U 22077A   25083.51791295  .00000967  00000+0  79857-4 0  9991
2 53043  97.6558 266.3553 0002213  84.9825 275.1652 15.01271753148385
STARLINK-4349           
1 53044U 22077B   25084.04742937  .00000507  00000+0  44053-4 0  9990
2 53044  97.6552 266.8788 0002525  71.8910 288.2589 15.01263459149043
STARLINK-4350           
1 53045U 22077C   25083.78637142 -.00004776  00000+0 -36739-3 0  9997
2 53045  97.6549 266.6032 0001944  91.8818 268.2629 15.01270579148428
STARLINK-4331           
1 53046U 22077D   25084.05137332  .00001334  00000+0  10844-3 0  9999
2 53046  97.6551 266.8680 0001931  92.3388 267.8057 15.01261651149047
STARLINK-4352           
1 53047U 22077E   25083.49780045 -.00000471  00000+0 -32046-4 0  9994
2 53047  97.6543 266.3645 0002290  86.8904 273.2582 15.01261446148388
STARLINK-4355           
1 53048U 22077F   25084.04398041  .00003925  00000+0  31013-3 0  9995
2 53048  97.6545 266.8762 0002136  81.9018 278.2449 15.01240744149035
STARLINK-4345           
1 53049U 22077G   25083.76970819 -.00000387  00000+0 -25556-4 0  9990
2 53049  97.6542 266.6095 0003123  55.5075 304.6444 15.01268424148412
STARLINK-4343           
1 53050U 22077H   25083.77527409 -.00001941  00000+0 -14650-3 0  9995
2 53050  97.6546 266.6106 0003024  64.7571 295.3967 15.01263174148417
STARLINK-4336           
1 53051U 22077J   25083.77711438  .00001307  00000+0  10630-3 0  9991
2 53051  97.6544 266.5959 0002586  70.2176 289.9327 15.01260629148417
STARLINK-4341           
1 53052U 22077K   25084.04002319  .00001526  00000+0  12336-3 0  9992
2 53052  97.6543 266.8718 0002743  63.4009 296.7496 15.01255659149036
STARLINK-4337           
1 53053U 22077L   25083.49939514  .00000048  00000+0  83386-5 0  9990
2 53053  97.6546 266.3379 0002552  81.5098 278.6416 15.01267961148371
STARLINK-4339           
1 53054U 22077M   25083.77156166 -.00000162  00000+0 -80484-5 0  9991
2 53054  97.6541 266.6071 0002873  65.9456 294.2068 15.01260545148412
STARLINK-4338           
1 53055U 22077N   25084.03076722  .00004955  00000+0  39014-3 0  9994
2 53055  97.6546 266.8603 0001141  75.8487 284.2864 15.01254037149033
STARLINK-4314           
1 53056U 22077P   25083.76785768  .00000228  00000+0  22373-4 0  9991
2 53056  97.6544 266.6023 0002681  43.4028 316.7406 15.01261927148418
STARLINK-4252           
1 53057U 22077Q   25083.76044876 -.00002123  00000+0 -16071-3 0  9995
2 53057  97.6542 266.5938 0001772  84.6017 275.5410 15.01270099148413
STARLINK-4317           
1 53058U 22077R   25083.77921486  .00000346  00000+0  31493-4 0  9997
2 53058  97.6548 266.5808 0002444  78.0104 282.1394 15.01270449148411
STARLINK-4320           
1 53059U 22077S   25083.95693766 -.00006592  00000+0 -50865-3 0  9999
2 53059  97.6537 266.7856 0001721  99.7367 260.4052 15.01295848148446
STARLINK-4305           
1 53060U 22077T   25083.76230158 -.00000083  00000+0 -18297-5 0  9996
2 53060  97.6546 266.5955 0001847  88.7086 271.4350 15.01261561148416
STARLINK-4308           
1 53061U 22077U   25083.08837888 -.00000888  00000+0 -64551-4 0  9991
2 53061  97.6535 265.9293 0001603  92.8536 267.2872 15.01259019148898
STARLINK-4311           
1 53062U 22077V   25083.95855133  .00000862  00000+0  71668-4 0  9998
2 53062  97.6537 266.7890 0000692 110.2676 249.8622 15.01262215148442
STARLINK-4307           
1 53063U 22077W   25083.77896636  .00000369  00000+0  33294-4 0  9997
2 53063  97.6542 266.6315 0002455  87.6534 272.4972 15.01260497 20000
STARLINK-4313           
1 53064U 22077X   25084.02336029  .00002489  00000+0  19839-3 0  9995
2 53064  97.6537 266.8513 0001189 107.0787 253.0568 15.01245413149039
STARLINK-4312           
1 53065U 22077Y   25084.01780057  .00002387  00000+0  19032-3 0  9991
2 53065  97.6517 266.8415 0000942  93.2528 266.8804 15.01262343149030
STARLINK-4309           
1 53066U 22077Z   25084.01619293  .00002521  00000+0  20077-3 0  9996
2 53066  97.6528 266.8425 0000804  88.7048 271.4268 15.01261693149030
STARLINK-4306           
1 53067U 22077AA  25083.94744780  .00008721  00000+0  68252-3 0  9993
2 53067  97.6531 266.7642 0000465 160.1132 200.0110 15.01270033148443
STARLINK-4325           
1 53068U 22077AB  25084.01965271  .00002945  00000+0  23382-3 0  9990
2 53068  97.6524 266.8377 0001109  81.9441 278.1909 15.01257955149037
STARLINK-4323           
1 53069U 22077AC  25083.74377819  .00000052  00000+0  86506-5 0  9991
2 53069  97.6537 266.5619 0002322 212.2227 147.8856 15.01266909148410
STARLINK-4342           
1 53070U 22077AD  25083.94929515  .00000254  00000+0  24347-4 0  9999
2 53070  97.6528 266.7686 0000398 111.5802 248.5465 15.01266819148447
STARLINK-4328           
1 53071U 22077AE  25083.74192891 -.00000780  00000+0 -56148-4 0  9997
2 53071  97.6539 266.5594 0002660 216.7800 143.3242 15.01270800148413
STARLINK-4344           
1 53072U 22077AF  25083.73822716 -.00001013  00000+0 -74285-4 0  9995
2 53072  97.6545 266.5721 0002896 176.2584 183.8663 15.01266792148414
STARLINK-4346           
1 53073U 22077AG  25084.05539426  .00050713  00000+0  36927-2 0  9993
2 53073  97.6481 266.8875 0002155 296.1660  63.9343 15.03571703149048
STARLINK-4310           
1 53074U 22077AH  25083.74563261 -.00000745  00000+0 -53408-4 0  9990
2 53074  97.6534 266.5564 0000743 243.3330 116.7818 15.01263286148415
STARLINK-4348           
1 53075U 22077AJ  25083.74008861  .00003337  00000+0  26429-3 0  9991
2 53075  97.6538 266.5454 0000833 191.5222 168.5983 15.01259467148416
STARLINK-4347           
1 53076U 22077AK  25084.00508307  .00003250  00000+0  25752-3 0  9994
2 53076  97.6544 266.8226 0002769 188.5117 171.6060 15.01258400149039
STARLINK-4322           
1 53078U 22077AM  25084.00298815  .00002249  00000+0  17956-3 0  9990
2 53078  97.6539 266.8170 0001872 174.7201 185.4043 15.01270380149033
STARLINK-4327           
1 53079U 22077AN  25083.99743089  .00001359  00000+0  11038-3 0  9992
2 53079  97.6564 266.8146 0001357 167.7224 192.4034 15.01263630149038
STARLINK-4330           
1 53080U 22077AP  25083.46791625  .00002295  00000+0  18322-3 0  9998
2 53080  97.6546 266.2898 0002097 191.0394 169.0784 15.01266272148371
STARLINK-4326           
1 53081U 22077AQ  25084.00138404  .00002222  00000+0  17755-3 0  9999
2 53081  97.6544 266.7991 0002911 172.2684 187.8585 15.01257844149033
STARLINK-4321           
1 53082U 22077AR  25083.99558054  .00001669  00000+0  13448-3 0  9993
2 53082  97.6573 266.8167 0001010  88.0649 272.0691 15.01258269149033
STARLINK-4251           
1 53083U 22077AS  25084.04927732 -.00000056  00000+0  25112-6 0  9998
2 53083  97.6548 266.8802 0002208  90.1315 270.0162 15.01259651149044
STARLINK-4319           
1 53084U 22077AT  25083.99372148  .00005537  00000+0  43518-3 0  9992
2 53084  97.6552 266.8201 0001923 130.8369 229.3022 15.01273790149038
STARLINK-4324           
1 53085U 22077AU  25083.91667824  .00076201  00000+0  58744-2 0  9995
2 53085  97.6554 266.7498 0001993  87.3283 245.2423 15.01253602149027
STARLINK-4318           
1 53086U 22077AV  25083.45866840 -.00001433  00000+0 -10699-3 0  9999
2 53086  97.6558 266.2943 0001331  79.2056 280.9318 15.01261743148377
STARLINK-4329           
1 53087U 22077AW  25083.77462614  .00008734  00000+0  66890-3 0  9999
2 53087  97.6673 266.6560 0004591  77.1554 283.0183 15.02091729148433
STARLINK-4333           
1 53088U 22077AX  25084.05483893  .00000282  00000+0  26503-4 0  9992
2 53088  97.6559 266.8834 0001378  91.8533 268.2849 15.01274726149044
STARLINK-4063           
1 53132U 22083A   25083.58854038 -.00006067  00000+0 -36368-3 0  9997
2 53132  53.2158 305.7814 0001349  79.3529 280.7615 15.08813927148365
STARLINK-4150           
1 53134U 22083C   25083.59589777 -.00005023  00000+0 -29787-3 0  9993
2 53134  53.2162 305.7520 0001964  84.0387 276.0829 15.08820102148991
STARLINK-4023           
1 53135U 22083D   25083.86822137  .00014108  00000+0  90284-3 0  9996
2 53135  53.2159 304.5293 0001439  78.8171 281.2983 15.08835237149390
STARLINK-4152           
1 53136U 22083E   25083.86453175  .00000436  00000+0  45454-4 0  9998
2 53136  53.2162 304.5472 0001494  91.3551 268.7613 15.08845098149393
STARLINK-4145           
1 53137U 22083F   25083.98965104 -.00000643  00000+0 -22310-4 0  9990
2 53137  53.2155 303.9831 0001344 105.2487 254.8654 15.08844706149054
